[{"OBJECT_NAME":"TIANMU-1 22","OBJECT_ID":"2023-208D","EPOCH":"2026-03-09T22:39:05.738688","MEAN_MOTION":15.29457749,"ECCENTRICITY":0.00031332,"INCLINATION":97.4379,"RA_OF_ASC_NODE":184.9419,"ARG_OF_PERICENTER":351.9312,"MEAN_ANOMALY":8.1877,"EPHEMERIS_TYPE":0,"CLASSIFICATION_TYPE":"U","NORAD_CAT_ID":58663,"ELEMENT_SET_NO":999,"REV_AT_EPOCH":12215,"BSTAR":0.00038239675,"MEAN_MOTION_DOT":0.00010851,"MEAN_MOTION_DDOT":0},{"OBJECT_NAME":"STARLINK-33948","OBJECT_ID":"2025-240B","EPOCH":"2026-03-09T05:11:13.239744","MEAN_MOTION":15.30196599,"ECCENTRICITY":0.00011494,"INCLINATION":53.1588,"RA_OF_ASC_NODE":65.1773,"ARG_OF_PERICENTER":83.7551,"MEAN_ANOMALY":276.3581,"EPHEMERIS_TYPE":0,"CLASSIFICATION_TYPE":"U","NORAD_CAT_ID":66147,"ELEMENT_SET_NO":999,"REV_AT_EPOCH":2196,"BSTAR":0.00042273696,"MEAN_MOTION_DOT":0.0001218,"MEAN_MOTION_DDOT":0}]
